NORAD_CAT_ID,OBJECT_NAME,OBJECT_TYPE,EPOCH,MEAN_MOTION,ECCENTRICITY,INCLINATION,RA_OF_ASC_NODE,ARG_OF_PERICENTER,MEAN_ANOMALY,BSTAR,MEAN_MOTION_DOT,MEAN_MOTION_DDOT,TLE_LINE0,TLE_LINE1,TLE_LINE2,SEMIMAJOR_AXIS,PERIOD,APOGEE,PERIGEE,DECAYED
51757.0,STARLINK-3459,PAYLOAD,2023-01-05 09:25:44,15.08856445,0.0002539,53.2178,113.4229,35.0936,325.0223,0.00014838,2.075e-05,0.0,0 STARLINK-3459,1 51757U 22016AV  23005.39288089  .00002075  00000-0  14838-3 0  9994,2 51757  53.2178 113.4229 0002539  35.0936 325.0223 15.08856445 48690,6917.83,95.437,541.452,537.939,0.0
51757.0,STARLINK-3459,PAYLOAD,2023-01-06 07:41:10,15.08827186,0.0002405,53.2179,109.2599,30.4716,329.6415,-0.00010083,-1.892e-05,0.0,0 STARLINK-3459,1 51757U 22016AV  23006.32026281 -.00001892  00000-0 -10083-3 0  9998,2 51757  53.2179 109.2599 0002405  30.4716 329.6415 15.08827186 49943,6917.92,95.438,541.448,538.121,0.0
51757.0,STARLINK-3459,PAYLOAD,2023-01-06 15:38:07,15.08818716,0.0002107,53.2189,107.7734,26.0621,334.0476,-0.00014743,-2.632e-05,0.0,0 STARLINK-3459,1 51757U 22016AV  23006.65147151 -.00002632  00000-0 -14743-3 0  9994,2 51757  53.2189 107.7734 0002107  26.0621 334.0476 15.08818716 49994,6917.945,95.439,541.268,538.3530000000002,0.0
51757.0,STARLINK-3459,PAYLOAD,2023-01-06 23:35:01,15.08841951,0.0002414,53.218,106.2861,26.9228,333.1889,-6.5753e-05,-1.335e-05,0.0,0 STARLINK-3459,1 51757U 22016AV  23006.98265685 -.00001335  00000-0 -65753-4 0  9990,2 51757  53.2180 106.2861 0002414  26.9228 333.1889 15.08841951 50046,6917.874,95.437,541.409,538.069,0.0
51757.0,STARLINK-3459,PAYLOAD,2023-01-07 09:07:19,15.08848913,0.000239,53.2195,104.5013,21.6537,338.4556,2.9406e-05,1.8e-06,0.0,0 STARLINK-3459,1 51757U 22016AV  23007.38008862  .00000180  00000-0  29406-4 0  9997,2 51757  53.2195 104.5013 0002390  21.6537 338.4556 15.08848913 50101,6917.853,95.437,541.372,538.065,0.0
51757.0,STARLINK-3459,PAYLOAD,2023-01-07 15:28:52,15.08855445,0.00021,53.2195,103.3143,11.7667,348.3373,-0.00015258,-2.717e-05,0.0,0 STARLINK-3459,1 51757U 22016AV  23007.64504637 -.00002717  00000-0 -15258-3 0  9996,2 51757  53.2195 103.3143 0002100  11.7667 348.3373 15.08855445 49030,6917.833000000001,95.437,541.151,538.245,0.0
51757.0,STARLINK-3459,PAYLOAD,2023-01-08 05:47:22,15.08810178,0.0002328,53.2188,100.6375,20.6862,339.4224,4.4122e-05,4.13e-06,0.0,0 STARLINK-3459,1 51757U 22016AV  23008.24123823  .00000413  00000-0  44122-4 0  9999,2 51757  53.2188 100.6375 0002328  20.6862 339.4224 15.08810178 50231,6917.972,95.439,541.447,538.226,0.0
51757.0,STARLINK-3459,PAYLOAD,2023-01-08 12:08:55,15.08825413,0.0002697,53.2171,99.4493,30.8479,329.2671,5.3028e-05,5.55e-06,0.0,0 STARLINK-3459,1 51757U 22016AV  23008.50619301  .00000555  00000-0  53028-4 0  9991,2 51757  53.2171  99.4493 0002697  30.8479 329.2671 15.08825413 50270,6917.925,95.438,541.656,537.924,0.0
51757.0,STARLINK-3459,PAYLOAD,2023-01-09 05:38:08,15.08848231,0.0002655,53.2178,96.1776,27.6737,332.4396,0.00011048,1.471e-05,0.0,0 STARLINK-3459,1 51757U 22016AV  23009.23482215  .00001471  00000-0  11048-3 0  9997,2 51757  53.2178  96.1776 0002655  27.6737 332.4396 15.08848231 50385,6917.855,95.437,541.557,537.884,0.0
51757.0,STARLINK-3459,PAYLOAD,2023-01-09 15:10:27,15.08849347,0.0002806,53.2168,94.3926,33.2528,326.8640000000001,9.3395e-05,1.199e-05,0.0,0 STARLINK-3459,1 51757U 22016AV  23009.63226226  .00001199  00000-0  93395-4 0  9992,2 51757  53.2168  94.3926 0002806  33.2528 326.8640 15.08849347 49331,6917.852,95.437,541.658,537.776,0.0
51757.0,STARLINK-3459,PAYLOAD,2023-01-10 08:39:42,15.08836271,0.0001971,53.2168,91.1181,33.8418,326.27,0.00021884,3.196e-05,0.0,0 STARLINK-3459,1 51757U 22016AV  23010.36091132  .00003196  00000-0  21884-3 0  9992,2 51757  53.2168  91.1181 0001971  33.8418 326.2700 15.08836271 50554,6917.892,95.438,541.12,538.393,0.0
51757.0,STARLINK-3459,PAYLOAD,2023-01-10 11:50:29,15.08832446,0.000258,53.2178,90.5271,26.5715,333.5409,0.00014601,2.036e-05,0.0,0 STARLINK-3459,1 51757U 22016AV  23010.49339484  .00002036  00000-0  14601-3 0  9992,2 51757  53.2178  90.5271 0002580  26.5715 333.5409 15.08832446 49469,6917.903,95.438,541.553,537.984,0.0
51757.0,STARLINK-3459,PAYLOAD,2023-01-10 15:01:15,15.08839368,0.0002691,53.2174,89.9319,31.8747,328.2408,6.9794e-05,8.22e-06,0.0,0 STARLINK-3459,1 51757U 22016AV  23010.62587200  .00000822  00000-0  69794-4 0  9993,2 51757  53.2174  89.9319 0002691  31.8747 328.2408 15.08839368 49489,6917.882,95.438,541.609,537.886,0.0
51757.0,STARLINK-3459,PAYLOAD,2023-01-11 10:05:51,15.08857396,0.00027,53.2166,86.3644,26.719,333.394,0.00022808,3.345e-05,0.0,0 STARLINK-3459,1 51757U 22016AV  23011.42073826  .00003345  00000-0  22808-3 0  9993,2 51757  53.2166  86.3644 0002700  26.7190 333.3940 15.08857396 50715,6917.826999999998,95.436,541.56,537.8240000000002,0.0
51757.0,STARLINK-3459,PAYLOAD,2023-01-11 21:13:34,15.088451699999998,0.0002664,53.2176,84.2806,28.1859,331.9277,0.00010608,1.4e-05,0.0,0 STARLINK-3459,1 51757U 22016AV  23011.88442131  .00001400  00000-0  10608-3 0  9997,2 51757  53.2176  84.2806 0002664  28.1859 331.9277 15.08845170 49677,6917.865,95.437,541.573,537.887,0.0
51757.0,STARLINK-3459,PAYLOAD,2023-01-12 05:10:30,15.08823498,0.0002361,53.216,82.7962,33.123000000000005,326.991,-8.0362e-05,-1.567e-05,0.0,0 STARLINK-3459,1 51757U 22016AV  23012.21563376 -.00001567  00000-0 -80362-4 0  9991,2 51757  53.2160  82.7962 0002361  33.1230 326.9910 15.08823498 50836,6917.931,95.439,541.429,538.163,0.0
51757.0,STARLINK-3459,PAYLOAD,2023-01-12 21:04:22,15.0882803,0.0002448,53.2154,79.8245,28.678,331.4346,-8.2079e-05,-1.594e-05,0.0,0 STARLINK-3459,1 51757U 22016AV  23012.87803551 -.00001594  00000-0 -82079-4 0  9992,2 51757  53.2154  79.8245 0002448  28.6780 331.4346 15.08828030 49823,6917.917,95.438,541.475,538.0880000000002,0.0
51757.0,STARLINK-3459,PAYLOAD,2023-01-13 12:58:13,15.08841515,0.0002329,53.2158,76.8482,31.6487,328.4644,0.00022675,3.322e-05,0.0,0 STARLINK-3459,1 51757U 22016AV  23013.54043394  .00003322  00000-0  22675-3 0  9992,2 51757  53.2158  76.8482 0002329  31.6487 328.4644 15.08841515 51039,6917.876,95.437,541.352,538.13,0.0
51757.0,STARLINK-3459,PAYLOAD,2023-01-13 20:55:09,15.08831258,0.0002586,53.2146,75.3607,33.4565,326.659,0.00013971,1.935e-05,0.0,0 STARLINK-3459,1 51757U 22016AV  23013.87164176  .00001935  00000-0  13971-3 0  9997,2 51757  53.2146  75.3607 0002586  33.4565 326.6590 15.08831258 49974,6917.906999999999,95.438,541.561,537.9830000000001,0.0
51757.0,STARLINK-3459,PAYLOAD,2023-01-14 04:52:05,15.08829761,0.0002398,53.2114,73.8731,34.7138,325.401,0.00023738,3.491e-05,0.0,0 STARLINK-3459,1 51757U 22016AV  23014.20284461  .00003491  00000-0  23738-3 0  9996,2 51757  53.2114  73.8731 0002398  34.7138 325.4010 15.08829761 51132,6917.911999999999,95.438,541.436,538.118,0.0
51757.0,STARLINK-3459,PAYLOAD,2023-01-14 12:49:00,15.08848963,0.0002233,53.2136,72.387,36.828,323.2865,0.00044405,6.788e-05,0.0,0 STARLINK-3459,1 51757U 22016AV  23014.53403760  .00006788  00000-0  44405-3 0  9993,2 51757  53.2136  72.3870 0002233  36.8280 323.2865 15.08848963 51187,6917.853,95.437,541.263,538.173,0.0
51757.0,STARLINK-3459,PAYLOAD,2023-01-15 04:42:53,15.08828364,0.0001986999999999,53.2146,69.4166,40.5496,319.5643,-6.2056e-05,-1.275e-05,0.0,0 STARLINK-3459,1 51757U 22016AV  23015.19644859 -.00001275  00000-0 -62056-4 0  9993,2 51757  53.2146  69.4166 0001987  40.5496 319.5643 15.08828364 51285,6917.916,95.438,541.156,538.406,0.0
51757.0,STARLINK-3459,PAYLOAD,2023-01-15 20:36:44,15.08846628,0.0001838,53.2134,66.4393,51.0046,309.111,0.00039578,6.018e-05,0.0,0 STARLINK-3459,1 51757U 22016AV  23015.85884411  .00006018  00000-0  39578-3 0  9996,2 51757  53.2134  66.4393 0001838  51.0046 309.1110 15.08846628 50279,6917.86,95.437,540.997,538.4540000000001,0.0
51757.0,STARLINK-3459,PAYLOAD,2023-01-16 06:09:02,15.08856316,0.0001875999999999,53.2127,64.6554,57.1713,302.9459,0.00079735,0.0001242999999999,0.0,0 STARLINK-3459,1 51757U 22016AV  23016.25628287  .00012430  00000-0  79735-3 0  9992,2 51757  53.2127  64.6554 0001876  57.1713 302.9459 15.08856316 51442,6917.831,95.437,540.993,538.398,0.0
51757.0,STARLINK-3459,PAYLOAD,2023-01-16 12:30:34,15.08876227,0.0001778,53.2127,63.4644,61.6247,298.4924,0.0012985,0.00020459,0.0,0 STARLINK-3459,1 51757U 22016AV  23016.52123593  .00020459  00000-0  12985-2 0  9995,2 51757  53.2127  63.4644 0001778  61.6247 298.4924 15.08876227 50372,6917.77,95.435,540.865,538.405,0.0
51757.0,STARLINK-3459,PAYLOAD,2023-01-17 02:49:04,15.08825061,0.0001543,53.213,60.7893,63.4563,296.6587,-0.00030229,-5.094e-05,0.0,0 STARLINK-3459,1 51757U 22016AV  23017.11740860 -.00005094  00000-0 -30229-3 0  9995,2 51757  53.2130  60.7893 0001543  63.4563 296.6587 15.08825061 51571,6917.926,95.438,540.8580000000001,538.724,0.0
51757.0,STARLINK-3459,PAYLOAD,2023-01-17 09:10:37,15.08816407,0.0001517,53.2133,59.5994,65.8219,294.2931,-0.00017962,-3.144e-05,0.0,0 STARLINK-3459,1 51757U 22016AV  23017.38237471 -.00003144  00000-0 -17962-3 0  9996,2 51757  53.2133  59.5994 0001517  65.8219 294.2931 15.08816407 50500,6917.953,95.439,540.867,538.768,0.0
51757.0,STARLINK-3459,PAYLOAD,2023-01-18 09:01:24,15.08873363,0.0001634,53.2139,55.1399,70.9003,289.2166,0.0022436,0.00035633,0.0,0 STARLINK-3459,1 51757U 22016AV  23018.37597701  .00035633  00000-0  22436-2 0  9998,2 51757  53.2139  55.1399 0001634  70.9003 289.2166 15.08873363 51762,6917.778,95.435,540.774,538.513,0.0
51757.0,STARLINK-3459,PAYLOAD,2023-01-19 02:30:38,15.08886973,0.0001696999999999,53.2149,51.8695,66.3706,293.7464,0.0022565,0.00035854,0.0,0 STARLINK-3459,1 51757U 22016AV  23019.10460891  .00035854  00000-0  22565-2 0  9997,2 51757  53.2149  51.8695 0001697  66.3706 293.7464 15.08886973 51877,6917.736999999999,95.435,540.776,538.428,0.0
